{
  "norad_id": 57605,
  "name": "STARLINK-30138",
  "history": [
    {
      "epoch": "2026-03-28T22:50:58.394400Z",
      "apogee_km": 487.16445987257885,
      "perigee_km": 483.92891938129014,
      "latitude_deg": 4.359721667310703e-05,
      "longitude_deg": 163.57450270033462,
      "height_km": 485.36327083711126,
      "semi_major_axis_km": 6863.683689626934,
      "eccentricity": 0.0002357,
      "inclination_deg": 43.0055,
      "raan_deg": 332.6829,
      "arg_perigee_deg": 268.6376,
      "mean_anomaly_deg": 91.4206,
      "mean_motion_rev_day": 15.2674628
    },
    {
      "epoch": "2026-03-29T23:58:17.837184Z",
      "apogee_km": 486.7502380180331,
      "perigee_km": 484.38116239402916,
      "latitude_deg": 2.227522199974827e-05,
      "longitude_deg": 139.80804220858073,
      "height_km": 485.3827618456972,
      "semi_major_axis_km": 6863.70270020603,
      "eccentricity": 0.00017258,
      "inclination_deg": 43.0022,
      "raan_deg": 326.7792,
      "arg_perigee_deg": 268.0756,
      "mean_anomaly_deg": 91.9898,
      "mean_motion_rev_day": 15.26739937
    },
    {
      "epoch": "2026-03-30T21:57:13.111776Z",
      "apogee_km": 486.6705334473281,
      "perigee_km": 484.46797011113176,
      "latitude_deg": -4.772332313688126e-06,
      "longitude_deg": 164.00863411155308,
      "height_km": 485.49021250703026,
      "semi_major_axis_km": 6863.706251779229,
      "eccentricity": 0.00016045,
      "inclination_deg": 43.0031,
      "raan_deg": 321.6129,
      "arg_perigee_deg": 262.5027,
      "mean_anomaly_deg": 97.5642,
      "mean_motion_rev_day": 15.26738752
    },
    {
      "epoch": "2026-03-31T21:30:22.002336Z",
      "apogee_km": 487.03856148773593,
      "perigee_km": 484.20657429002404,
      "latitude_deg": 3.40904574411502e-05,
      "longitude_deg": 164.2164673546229,
      "height_km": 485.6081286628136,
      "semi_major_axis_km": 6863.759567888879,
      "eccentricity": 0.0002063,
      "inclination_deg": 43.0014,
      "raan_deg": 316.075,
      "arg_perigee_deg": 261.547,
      "mean_anomaly_deg": 98.5148,
      "mean_motion_rev_day": 15.26720963
    },
    {
      "epoch": "2026-04-01T21:03:28.775232Z",
      "apogee_km": 486.7001924401038,
      "perigee_km": 484.2759600631707,
      "latitude_deg": 5.720942762363717e-07,
      "longitude_deg": 164.4395710405357,
      "height_km": 485.2485429831974,
      "semi_major_axis_km": 6863.6250762516365,
      "eccentricity": 0.0001766,
      "inclination_deg": 43.0032,
      "raan_deg": 310.5436,
      "arg_perigee_deg": 270.8021,
      "mean_anomaly_deg": 89.2628,
      "mean_motion_rev_day": 15.26765837
    },
    {
      "epoch": "2026-04-02T20:36:34.714368Z",
      "apogee_km": 486.6145534610969,
      "perigee_km": 484.24799512012123,
      "latitude_deg": -5.578029836655634e-05,
      "longitude_deg": 164.66153341679876,
      "height_km": 485.2018367598302,
      "semi_major_axis_km": 6863.568274290608,
      "eccentricity": 0.0001724,
      "inclination_deg": 43.0042,
      "raan_deg": 305.0076,
      "arg_perigee_deg": 270.3367,
      "mean_anomaly_deg": 89.7286,
      "mean_motion_rev_day": 15.2678479
    },
    {
      "epoch": "2026-04-02T22:10:46.982496Z",
      "apogee_km": 486.8916099701637,
      "perigee_km": 483.9714361063516,
      "latitude_deg": 4.665624119770889e-06,
      "longitude_deg": 140.6754000478381,
      "height_km": 485.5388060576321,
      "semi_major_axis_km": 6863.568523038257,
      "eccentricity": 0.00021273,
      "inclination_deg": 43.0028,
      "raan_deg": 304.637,
      "arg_perigee_deg": 256.9491,
      "mean_anomaly_deg": 103.1123,
      "mean_motion_rev_day": 15.26784707
    },
    {
      "epoch": "2026-04-02T23:44:59.444160Z",
      "apogee_km": 486.86872994303667,
      "perigee_km": 484.0473805596257,
      "latitude_deg": -9.612699455076292e-06,
      "longitude_deg": 116.69087839240632,
      "height_km": 485.4700889476476,
      "semi_major_axis_km": 6863.595055251331,
      "eccentricity": 0.00020553,
      "inclination_deg": 43.0027,
      "raan_deg": 304.2689,
      "arg_perigee_deg": 260.4315,
      "mean_anomaly_deg": 99.6304,
      "mean_motion_rev_day": 15.26775854
    }
  ]
}